{"type":"FeatureCollection","name":"south-china-sea-discontinuous-line-map-layer-v1","bbox":[106.0,6.0,127.5,26.0],"metadata":{"schema_version":"south-china-sea-cartography-v1","map_source":"MNR-standard-map-GS2016-1609","derivation":"official-dash-symbol-principal-axes-georeferenced-for-rendering","source_viewbox":[339.6141312296565,672.0004364367053,386.0713173671663,737.2884323139202],"display_bounds":[106.0,6.0,127.5,26.0],"render_only":true,"distance_analysis_allowed":false,"simulation_scope":"none","path_count":46,"segment_count":12},"features":[{"type":"Feature","id":"south-china-sea-dash-1","properties":{"source_path_indexes":[20,21,22,23],"source_path_sha256":"e6022d7ddece082b53d2ec9f13590d3fc315d119b99b0362667966c953c14ab3","map_source":"MNR-standard-map-GS2016-1609","simulation_scope":"none","derivation":"principal-axis-of-official-dash-symbol"},"geometry":{"type":"LineString","coordinates":[[109.5629276,20.6163583],[110.3494901,19.685027]]}},{"type":"Feature","id":"south-china-sea-dash-2","properties":{"source_path_indexes":[24,25,26,27],"source_path_sha256":"aa67ef9869352fa8da6087451c4adc495dbf931b561e19f066a721efda8d5d4a","map_source":"MNR-standard-map-GS2016-1609","simulation_scope":"none","derivation":"principal-axis-of-official-dash-symbol"},"geometry":{"type":"LineString","coordinates":[[110.6385454,15.6749283],[111.0990938,16.7174702]]}},{"type":"Feature","id":"south-china-sea-dash-3","properties":{"source_path_indexes":[28,29,30,31],"source_path_sha256":"90b0aa9d702ffcb90640b465464fe8d89417feb67fff20b459e40a404db69c3f","map_source":"MNR-standard-map-GS2016-1609","simulation_scope":"none","derivation":"principal-axis-of-official-dash-symbol"},"geometry":{"type":"LineString","coordinates":[[107.8367609,10.6050759],[107.8412702,11.7213937]]}},{"type":"Feature","id":"south-china-sea-dash-4","properties":{"source_path_indexes":[36,37,38,39],"source_path_sha256":"fe18d1e11452e4f12bee4fe9d95ec0e26492883dbac90dad660290f336aa6fe7","map_source":"MNR-standard-map-GS2016-1609","simulation_scope":"none","derivation":"principal-axis-of-official-dash-symbol"},"geometry":{"type":"LineString","coordinates":[[123.9691803,20.5287318],[123.9694901,19.521027]]}},{"type":"Feature","id":"south-china-sea-dash-5","properties":{"source_path_indexes":[40,41,42,43],"source_path_sha256":"92745cb8aee1afbbee9698ba88a74646ae888cbc8f6b2d3efb0672d07788aab8","map_source":"MNR-standard-map-GS2016-1609","simulation_scope":"none","derivation":"principal-axis-of-official-dash-symbol"},"geometry":{"type":"LineString","coordinates":[[126.3779205,25.0895766],[127.2917437,25.8702665]]}},{"type":"Feature","id":"south-china-sea-dash-6","properties":{"source_path_indexes":[44,45,46,47],"source_path_sha256":"8257425c53d5da7bc3c751a5f1eca4e3f9f8c1e14f6431bacaf525b2d705b0ee","map_source":"MNR-standard-map-GS2016-1609","simulation_scope":"none","derivation":"principal-axis-of-official-dash-symbol"},"geometry":{"type":"LineString","coordinates":[[106.2082563,9.7725245],[107.6682621,9.8594312]]}},{"type":"Feature","id":"south-china-sea-dash-7","properties":{"source_path_indexes":[48,49,50,51],"source_path_sha256":"0af006a121253ad8773e17e30a2008a84c5592d68c139d644c5b06018434f24c","map_source":"MNR-standard-map-GS2016-1609","simulation_scope":"none","derivation":"principal-axis-of-official-dash-symbol"},"geometry":{"type":"LineString","coordinates":[[109.723362,7.7352021],[109.7537437,6.753293]]}},{"type":"Feature","id":"south-china-sea-dash-8","properties":{"source_path_indexes":[52,53,54,55],"source_path_sha256":"027ab30703e5e976acb8617ec0bb3edbee15b99beec1b92f45ed6dd9c65b26f0","map_source":"MNR-standard-map-GS2016-1609","simulation_scope":"none","derivation":"principal-axis-of-official-dash-symbol"},"geometry":{"type":"LineString","coordinates":[[123.8462665,8.8312049],[125.3547516,8.7193653]]}},{"type":"Feature","id":"south-china-sea-dash-9","properties":{"source_path_indexes":[102,103,104],"source_path_sha256":"8a4236055bfbf4b5e5575a9474247f5d905665b5820e9f5864afca12f8425d8f","map_source":"MNR-standard-map-GS2016-1609","simulation_scope":"none","derivation":"principal-axis-of-official-dash-symbol"},"geometry":{"type":"LineString","coordinates":[[118.72269,7.7420681],[119.3705308,8.8224307]]}},{"type":"Feature","id":"south-china-sea-dash-10","properties":{"source_path_indexes":[106,107,108],"source_path_sha256":"e2642e809b407b02a36e8a568b488329cc8debd3296cffb8771af2ad0632064c","map_source":"MNR-standard-map-GS2016-1609","simulation_scope":"none","derivation":"principal-axis-of-official-dash-symbol"},"geometry":{"type":"LineString","coordinates":[[117.714197,6.1434529],[118.0873386,7.181877]]}},{"type":"Feature","id":"south-china-sea-dash-11","properties":{"source_path_indexes":[129,130,131,132],"source_path_sha256":"dee2cae5fb16dea511e458228a8fb45038884c30bf16f934b98d37c0a1f5a19f","map_source":"MNR-standard-map-GS2016-1609","simulation_scope":"none","derivation":"principal-axis-of-official-dash-symbol"},"geometry":{"type":"LineString","coordinates":[[124.3071558,22.5154142],[124.9453583,23.4285262]]}},{"type":"Feature","id":"south-china-sea-dash-12","properties":{"source_path_indexes":[133,134,135,136],"source_path_sha256":"ff0b556dc12e2db83b6de7e389aaf6c3f5b6e0be310121c4ab524b037c4051c6","map_source":"MNR-standard-map-GS2016-1609","simulation_scope":"none","derivation":"principal-axis-of-official-dash-symbol"},"geometry":{"type":"LineString","coordinates":[[123.3018161,15.441266],[123.9185353,16.4077804]]}}]}